NORAD_CAT_ID,OBJECT_NAME,OBJECT_TYPE,EPOCH,MEAN_MOTION,ECCENTRICITY,INCLINATION,RA_OF_ASC_NODE,ARG_OF_PERICENTER,MEAN_ANOMALY,BSTAR,MEAN_MOTION_DOT,MEAN_MOTION_DDOT,TLE_LINE0,TLE_LINE1,TLE_LINE2,SEMIMAJOR_AXIS,PERIOD,APOGEE,PERIGEE,DECAYED
53833.0,STARLINK-4771,PAYLOAD,2024-03-29 20:44:51,15.08830488,0.0001307,53.2174,250.5237,100.967,259.147,0.00038623,5.863e-05,0.0,0 STARLINK-4771,1 53833U 22114R   24089.86449046  .00005863  00000-0  38623-3 0  9993,2 53833  53.2174 250.5237 0001307 100.9670 259.1470 15.08830488 85673,6917.909,95.438,540.679,538.87,0.0
53833.0,STARLINK-4771,PAYLOAD,2024-03-30 11:03:17,15.0892979,0.0001084,53.217,247.8478,80.062,280.0495,-0.0013289,-0.00021427,0.0,0 STARLINK-4771,1 53833U 22114R   24090.46062071 -.00021427  00000-0 -13289-2 0  9996,2 53833  53.2170 247.8478 0001084  80.0620 280.0495 15.08929790 85226,6917.606,95.432,540.221,538.721,0.0
53833.0,STARLINK-4771,PAYLOAD,2024-03-30 14:14:04,15.08886486,0.000129,53.2168,247.2534,95.1965,264.9174,-0.00066008,-0.00010791,0.0,0 STARLINK-4771,1 53833U 22114R   24090.59311103 -.00010791  00000-0 -66008-3 0  9993,2 53833  53.2168 247.2534 0001290  95.1965 264.9174 15.08886486 85788,6917.738,95.435,540.496,538.711,0.0
53833.0,STARLINK-4771,PAYLOAD,2024-03-30 17:24:51,15.08864059,0.0001334,53.2148,246.6615,83.4514,276.663,-0.00028714,-4.858e-05,0.0,0 STARLINK-4771,1 53833U 22114R   24090.72559283 -.00004858  00000-0 -28714-3 0  9990,2 53833  53.2148 246.6615 0001334  83.4514 276.6630 15.08864059 85260,6917.807,95.436,540.595,538.749,0.0
53833.0,STARLINK-4771,PAYLOAD,2024-03-31 09:18:43,15.08839565,0.0001502,53.2136,243.6882,100.6059,259.5102,6.3351e-05,7.2e-06,0.0,0 STARLINK-4771,1 53833U 22114R   24091.38800415  .00000720  00000-0  63351-4 0  9998,2 53833  53.2136 243.6882 0001502 100.6059 259.5102 15.08839565 85362,6917.882,95.438,540.786,538.708,0.0
53833.0,STARLINK-4771,PAYLOAD,2024-03-31 14:04:53,15.08837459,0.0001347,53.2159,242.7965,99.2418,260.8726,3.8257e-05,3.21e-06,0.0,0 STARLINK-4771,1 53833U 22114R   24091.58672608  .00000321  00000-0  38257-4 0  9995,2 53833  53.2159 242.7965 0001347  99.2418 260.8726 15.08837459 85938,6917.888,95.438,540.685,538.821,0.0
53833.0,STARLINK-4771,PAYLOAD,2024-03-31 17:15:39,15.08840543,0.0001414,53.2163,242.2017,99.3497,260.7655,5.8088e-05,6.37e-06,0.0,0 STARLINK-4771,1 53833U 22114R   24091.71920379  .00000637  00000-0  58088-4 0  9995,2 53833  53.2163 242.2017 0001414  99.3497 260.7655 15.08840543 85959,6917.879,95.438,540.722,538.766,0.0
53833.0,STARLINK-4771,PAYLOAD,2024-04-01 13:55:40,15.08831323,0.0001509,53.218,238.3375,103.5222,256.5938,-1.4048e-05,-5.11e-06,0.0,0 STARLINK-4771,1 53833U 22114R   24092.58033462 -.00000511  00000-0 -14048-4 0  9990,2 53833  53.2180 238.3375 0001509 103.5222 256.5938 15.08831323 86088,6917.907,95.438,540.816,538.728,0.0
53833.0,STARLINK-4771,PAYLOAD,2024-04-01 18:41:49,15.08838102,0.0001194,53.2188,237.4424,86.2537,273.8592,3.994e-05,3.48e-06,0.0,0 STARLINK-4771,1 53833U 22114R   24092.77904967  .00000348  00000-0  39940-4 0  9992,2 53833  53.2188 237.4424 0001194  86.2537 273.8592 15.08838102 85570,6917.886,95.438,540.577,538.925,0.0
53833.0,STARLINK-4771,PAYLOAD,2024-04-02 13:46:27,15.08845388,0.0001474,53.2189,233.8713,90.1054,270.0108,2.698e-05,1.41e-06,0.0,0 STARLINK-4771,1 53833U 22114R   24093.57392733  .00000141  00000-0  26980-4 0  9994,2 53833  53.2189 233.8713 0001474  90.1054 270.0108 15.08845388 86231,6917.864,95.437,540.749,538.709,0.0
53833.0,STARLINK-4771,PAYLOAD,2024-04-02 18:32:36,15.08849307,0.000131,53.2179,232.98,79.6503,280.4637,6.0564e-05,6.76e-06,0.0,0 STARLINK-4771,1 53833U 22114R   24093.77264352  .00000676  00000-0  60564-4 0  9990,2 53833  53.2179 232.9800 0001310  79.6503 280.4637 15.08849307 85727,6917.852,95.437,540.623,538.811,0.0
53833.0,STARLINK-4771,PAYLOAD,2024-04-03 08:51:05,15.08836315,0.0001416,53.2177,230.3077,86.8232,273.2922,0.00011714,1.577e-05,0.0,0 STARLINK-4771,1 53833U 22114R   24094.36881138  .00001577  00000-0  11714-3 0  9996,2 53833  53.2177 230.3077 0001416  86.8232 273.2922 15.08836315 85811,6917.892,95.438,540.736,538.777,0.0
53833.0,STARLINK-4771,PAYLOAD,2024-04-03 13:37:15,15.08832427,0.0001422,53.2178,229.4139,88.5472,271.5683,7.712e-05,9.39e-06,0.0,0 STARLINK-4771,1 53833U 22114R   24094.56753545  .00000939  00000-0  77120-4 0  9993,2 53833  53.2178 229.4139 0001422  88.5472 271.5683 15.08832427 86380,6917.904,95.438,540.752,538.785,0.0
53833.0,STARLINK-4771,PAYLOAD,2024-04-04 13:28:01,15.08842086,0.0001482,53.2176,224.9526,86.2145,273.9016,5.3543e-05,5.64e-06,0.0,0 STARLINK-4771,1 53833U 22114R   24095.56112943  .00000564  00000-0  53543-4 0  9992,2 53833  53.2176 224.9526 0001482  86.2145 273.9016 15.08842086 85990,6917.874,95.437,540.764,538.714,0.0
53833.0,STARLINK-4771,PAYLOAD,2024-04-04 15:03:24,15.08843955,0.0001315,53.2178,224.6541,94.284,265.8302,7.7921e-05,9.53e-06,0.0,0 STARLINK-4771,1 53833U 22114R   24095.62736673  .00000953  00000-0  77921-4 0  9999,2 53833  53.2178 224.6541 0001315  94.2840 265.8302 15.08843955 86548,6917.868,95.437,540.643,538.824,0.0
53833.0,STARLINK-4771,PAYLOAD,2024-04-05 14:54:11,15.08837904,0.0001392,53.2177,220.194,98.3113,261.8037,0.00029393,4.393e-05,0.0,0 STARLINK-4771,1 53833U 22114R   24096.62096353  .00004393  00000-0  29393-3 0  9995,2 53833  53.2177 220.1940 0001392  98.3113 261.8037 15.08837904 86698,6917.887,95.438,540.715,538.789,0.0
53833.0,STARLINK-4771,PAYLOAD,2024-04-06 08:23:26,15.08836581,0.000139,53.2178,216.923,97.6245,262.4905,1.3145e-05,-7.9e-07,0.0,0 STARLINK-4771,1 53833U 22114R   24097.34960861 -.00000079  00000-0  13145-4 0  9996,2 53833  53.2178 216.9230 0001390  97.6245 262.4905 15.08836581 86264,6917.891,95.438,540.717,538.794,0.0
53833.0,STARLINK-4771,PAYLOAD,2024-04-06 14:44:58,15.08837974,0.0001331,53.2176,215.7367,85.4419,274.6725,2.3651e-05,8.9e-07,0.0,0 STARLINK-4771,1 53833U 22114R   24097.61456794  .00000089  00000-0  23651-4 0  9994,2 53833  53.2176 215.7367 0001331  85.4419 274.6725 15.08837974 86849,6917.887,95.438,540.672,538.831,0.0
53833.0,STARLINK-4771,PAYLOAD,2024-04-07 08:14:13,15.0883254,0.0001266,53.2168,212.465,84.4676,275.646,-5.337e-05,-1.137e-05,0.0,0 STARLINK-4771,1 53833U 22114R   24098.34321524 -.00001137  00000-0 -53370-4 0  9995,2 53833  53.2168 212.4650 0001266  84.4676 275.6460 15.08832540 86414,6917.903,95.438,540.644,538.892,0.0
53833.0,STARLINK-4771,PAYLOAD,2024-04-07 14:35:46,15.08837479,0.0001514,53.2176,211.2743,90.2063,269.9103,-3.5167e-05,-8.48e-06,0.0,0 STARLINK-4771,1 53833U 22114R   24098.60817233 -.00000848  00000-0 -35167-4 0  9993,2 53833  53.2176 211.2743 0001514  90.2063 269.9103 15.08837479 86993,6917.888,95.438,540.8,538.706,0.0
53833.0,STARLINK-4771,PAYLOAD,2024-04-08 00:08:04,15.08837926,0.000143,53.2156,209.49,87.1088,273.0068,-3.8188e-05,-8.96e-06,0.0,0 STARLINK-4771,1 53833U 22114R   24099.00561247 -.00000896  00000-0 -38188-4 0  9998,2 53833  53.2156 209.4900 0001430  87.1088 273.0068 15.08837926 86515,6917.887,95.438,540.741,538.762,0.0
53833.0,STARLINK-4771,PAYLOAD,2024-04-08 14:26:32,15.08841039,0.0001246,53.2163,206.8144,90.5238,269.5896,0.00010861,1.441e-05,0.0,0 STARLINK-4771,1 53833U 22114R   24099.60176821  .00001441  00000-0  10861-3 0  9996,2 53833  53.2163 206.8144 0001246  90.5238 269.5896 15.08841039 87143,6917.877,95.437,540.604,538.88,0.0
53833.0,STARLINK-4771,PAYLOAD,2024-04-08 23:58:51,15.08842033,0.0001365,53.2167,205.0292,82.3911,277.7236,0.00016708,2.372e-05,0.0,0 STARLINK-4771,1 53833U 22114R   24099.99920607  .00002372  00000-0  16708-3 0  9997,2 53833  53.2167 205.0292 0001365  82.3911 277.7236 15.08842033 87202,6917.874,95.437,540.683,538.795,0.0
53833.0,STARLINK-4771,PAYLOAD,2024-04-10 12:32:44,15.08830786,0.0001519,53.2202,198.1912,89.0165,271.1002,3.0261e-05,1.94e-06,0.0,0 STARLINK-4771,1 53833U 22114R   24101.52274269  .00000194  00000-0  30261-4 0  9997,2 53833  53.2202 198.1912 0001519  89.0165 271.1002 15.08830786 86894,6917.909,95.438,540.824,538.723,0.0
53833.0,STARLINK-4771,PAYLOAD,2024-04-10 15:43:30,15.08838631,0.0001553,53.2185,197.5958,81.4358,278.681,-4.1636e-05,-9.51e-06,0.0,0 STARLINK-4771,1 53833U 22114R   24101.65521951 -.00000951  00000-0 -41636-4 0  9995,2 53833  53.2185 197.5958 0001553  81.4358 278.6810 15.08838631 87454,6917.885,95.438,540.824,538.675,0.0
53833.0,STARLINK-4771,PAYLOAD,2024-04-11 12:23:31,15.08834751,0.0001366,53.2159,193.728,84.5519,275.5629,6.6894e-05,7.77e-06,0.0,0 STARLINK-4771,1 53833U 22114R   24102.51634042  .00000777  00000-0  66894-4 0  9994,2 53833  53.2159 193.7280 0001366  84.5519 275.5629 15.08834751 87044,6917.896,95.438,540.706,538.816,0.0
53833.0,STARLINK-4771,PAYLOAD,2024-04-12 12:14:18,15.08845126,0.0001415,53.2164,189.2673,85.8281,274.2872,0.00014053,1.95e-05,0.0,0 STARLINK-4771,1 53833U 22114R   24103.50993218  .00001950  00000-0  14053-3 0  9990,2 53833  53.2164 189.2673 0001415  85.8281 274.2872 15.08845126 87191,6917.865,95.437,540.709,538.751,0.0
53833.0,STARLINK-4771,PAYLOAD,2024-04-13 05:43:32,15.08841867,0.0001439,53.2163,185.9966,85.9633,274.1524,8.0487e-05,9.93e-06,0.0,0 STARLINK-4771,1 53833U 22114R   24104.23857533  .00000993  00000-0  80487-4 0  9991,2 53833  53.2163 185.9966 0001439  85.9633 274.1524 15.08841867 87300,6917.875,95.437,540.735,538.744,0.0
53833.0,STARLINK-4771,PAYLOAD,2024-04-13 10:29:42,15.08841821,0.0001442,53.2168,185.1039,88.481,271.6348,7.3443e-05,8.81e-06,0.0,0 STARLINK-4771,1 53833U 22114R   24104.43729518  .00000881  00000-0  73443-4 0  9994,2 53833  53.2168 185.1039 0001442  88.4810 271.6348 15.08841821 87875,6917.875,95.437,540.737,538.742,0.0
53833.0,STARLINK-4771,PAYLOAD,2024-04-14 11:55:52,15.0884444,0.0001559,53.2181,180.3507,98.7694,261.3475,-6.6552e-05,-1.347e-05,0.0,0 STARLINK-4771,1 53833U 22114R   24105.49713842 -.00001347  00000-0 -66552-4 0  9997,2 53833  53.2181 180.3507 0001559  98.7694 261.3475 15.08844440 87495,6917.867,95.437,540.81,538.653,0.0
